SHIJIAN-6 05A (SJ-6 05A)
1 49961U 21122A   26068.88345882  .00003299  00000+0  27617-3 0  9993
2 49961  97.4012  42.3306 0003221  76.6317 283.5266 14.99085264233873
STARLINK-5584           
1 55769U 23028AE  26068.76947895  .00000252  00000+0  28941-4 0  9990
2 55769  69.9998 224.3096 0002908 269.8174  90.2652 14.98332641166543
